STARLINK-1043           
1 44748U 19074AM  26068.65784534  .00035156  00000+0  54549-3 0  9991
2 44748  53.0519 194.6522 0002064  78.4860 281.6381 15.53675122348647
LEMUR-2-JOHNNYTRUONG    
1 59146U 24043BA  26068.97450647  .00037131  00000+0  59179-3 0  9990
2 59146  97.5264 215.1548 0005403 183.0981 177.0239 15.53145437112605
