[{"OBJECT_NAME":"STARLINK-1043","OBJECT_ID":"2019-074AM","EPOCH":"2026-03-09T15:47:17.837376","MEAN_MOTION":15.53675122,"ECCENTRICITY":0.00020644,"INCLINATION":53.0519,"RA_OF_ASC_NODE":194.6522,"ARG_OF_PERICENTER":78.486,"MEAN_ANOMALY":281.6381,"EPHEMERIS_TYPE":0,"CLASSIFICATION_TYPE":"U","NORAD_CAT_ID":44748,"ELEMENT_SET_NO":999,"REV_AT_EPOCH":34864,"BSTAR":0.00054549296,"MEAN_MOTION_DOT":0.00035156,"MEAN_MOTION_DDOT":0},{"OBJECT_NAME":"LEMUR-2-JOHNNYTRUONG","OBJECT_ID":"2024-043BA","EPOCH":"2026-03-09T23:23:17.359008","MEAN_MOTION":15.53145437,"ECCENTRICITY":0.00054027,"INCLINATION":97.5264,"RA_OF_ASC_NODE":215.1548,"ARG_OF_PERICENTER":183.0981,"MEAN_ANOMALY":177.0239,"EPHEMERIS_TYPE":0,"CLASSIFICATION_TYPE":"U","NORAD_CAT_ID":59146,"ELEMENT_SET_NO":999,"REV_AT_EPOCH":11260,"BSTAR":0.00059178591,"MEAN_MOTION_DOT":0.00037131,"MEAN_MOTION_DDOT":0}]
